{"type": "FeatureCollection", "features": [ {"type": "Feature", "properties": {"norad_id": 66795, "name": "STARLINK-36047", "group": "last-30-days", "lat": -23.258345945781464, "lon": 86.96104850358066, "alt_km": 316.28623483252795, "timestamp": "2025-12-14T18:52:54.243295+00:00", "meta": {"OBJECT_NAME": "STARLINK-36047", "OBJECT_ID": "2025-278E", "EPOCH": "2025-12-13T10:14:17.411424", "MEAN_MOTION": 15.85716251, "ECCENTRICITY": 0.00027302, "INCLINATION": 42.9972, "RA_OF_ASC_NODE": 247.8787, "ARG_OF_PERICENTER": 337.2079, "MEAN_ANOMALY": 22.8673, "EPHEMERIS_TYPE": 0, "CLASSIFICATION_TYPE": "U", "NORAD_CAT_ID": 66795, "ELEMENT_SET_NO": 999, "REV_AT_EPOCH": 194, "BSTAR": 0.00069096369, "MEAN_MOTION_DOT": 0.00176561, "MEAN_MOTION_DDOT": 0}, "tle": {"line1": "1 66795U 25278E   25347.42659041  .00176561  00000+0  69096-3 0  9997", "line2": "2 66795  42.9972 247.8787 0002730 337.2079  22.8673 15.85716251  1947"}}, "geometry": {"type": "Point", "coordinates": [86.96104850358066, -23.258345945781464]}}, {"type": "Feature", "properties": {"norad_id": 66796, "name": "STARLINK-35964", "group": "last-30-days", "lat": -41.23563212463449, "lon": 128.6721637484018, "alt_km": 287.324283852653, "timestamp": "2025-12-14T18:52:54.243305+00:00", "meta": {"OBJECT_NAME": "STARLINK-35964", "OBJECT_ID": "2025-278F", "EPOCH": "2025-12-13T20:47:46.351680", "MEAN_MOTION": 15.96921183, "ECCENTRICITY": 0.00027455, "INCLINATION": 42.9941, "RA_OF_ASC_NODE": 244.2388, "ARG_OF_PERICENTER": 230.1119, "MEAN_ANOMALY": 129.9517, "EPHEMERIS_TYPE": 0, "CLASSIFICATION_TYPE": "U", "NORAD_CAT_ID": 66796, "ELEMENT_SET_NO": 999, "REV_AT_EPOCH": 202, "BSTAR": -0.0013258498, "MEAN_MOTION_DOT": -0.00597138, "MEAN_MOTION_DDOT": 0.00012488021}, "tle": {"line1": "1 66796U 25278F   25347.86650870 -.00597138  12488-3 -13258-2 0  9991", "line2": "2 66796  42.9941 244.2388 0002745 230.1119 129.9517 15.96921183  2024"}}, "geometry": {"type": "Point", "coordinates": [128.6721637484018, -41.23563212463449]}}, {"type": "Feature", "properties": {"norad_id": 66797, "name": "STARLINK-36099", "group": "last-30-days", "lat": -30.165918799285095, "lon": 98.04972992498578, "alt_km": 312.2254091896084, "timestamp": "2025-12-14T18:52:54.243318+00:00", "meta": {"OBJECT_NAME": "STARLINK-36099", "OBJECT_ID": "2025-278G", "EPOCH": "2025-12-13T02:39:20.871936", "MEAN_MOTION": 15.86593561, "ECCENTRICITY": 0.00038292, "INCLINATION": 42.9983, "RA_OF_ASC_NODE": 249.8093, "ARG_OF_PERICENTER": 302.0122, "MEAN_ANOMALY": 58.0379, "EPHEMERIS_TYPE": 0, "CLASSIFICATION_TYPE": "U", "NORAD_CAT_ID": 66797, "ELEMENT_SET_NO": 999, "REV_AT_EPOCH": 189, "BSTAR": 0.0008369452, "MEAN_MOTION_DOT": 0.00224629, "MEAN_MOTION_DDOT": 0}, "tle": {"line1": "1 66797U 25278G   25347.11065824  .00224629  00000+0  83695-3 0  9995", "line2": "2 66797  42.9983 249.8093 0003829 302.0122  58.0379 15.86593561  1898"}}, "geometry": {"type": "Point", "coordinates": [98.04972992498578, -30.165918799285095]}}, {"type": "Feature", "properties": {"norad_id": 66798, "name": "STARLINK-36041", "group": "last-30-days", "lat": -23.807026069917924, "lon": 87.75302022468263, "alt_km": 325.91071796081087, "timestamp": "2025-12-14T18:52:54.243328+00:00", "meta": {"OBJECT_NAME": "STARLINK-36041", "OBJECT_ID": "2025-278H", "EPOCH": "2025-12-13T20:46:30.395712", "MEAN_MOTION": 15.84436801, "ECCENTRICITY": 0.00028001, "INCLINATION": 42.997, "RA_OF_ASC_NODE": 245.1466, "ARG_OF_PERICENTER": 264.2776, "MEAN_ANOMALY": 95.7777, "EPHEMERIS_TYPE": 0, "CLASSIFICATION_TYPE": "U", "NORAD_CAT_ID": 66798, "ELEMENT_SET_NO": 999, "REV_AT_EPOCH": 201, "BSTAR": -0.0061246194, "MEAN_MOTION_DOT": -0.01278615, "MEAN_MOTION_DDOT": 0}, "tle": {"line1": "1 66798U 25278H   25347.86562958 -.01278615  00000+0 -61246-2 0  9992", "line2": "2 66798  42.9970 245.1466 0002800 264.2776  95.7777 15.84436801  2016"}}, "geometry": {"type": "Point", "coordinates": [87.75302022468263, -23.807026069917924]}}, {"type": "Feature", "properties": {"norad_id": 66799, "name": "STARLINK-36044", "group": "last-30-days", "lat": -36.602235541938356, "lon": 112.28292673161394, "alt_km": 292.3976090383658, "timestamp": "2025-12-14T18:52:54.243338+00:00", "meta": {"OBJECT_NAME": "STARLINK-36044", "OBJECT_ID": "2025-278J", "EPOCH": "2025-12-13T19:14:36.423744", "MEAN_MOTION": 15.88156331, "ECCENTRICITY": 0.00292542, "INCLINATION": 42.9974, "RA_OF_ASC_NODE": 245.5274, "ARG_OF_PERICENTER": 280.3438, "MEAN_ANOMALY": 79.4139, "EPHEMERIS_TYPE": 0, "CLASSIFICATION_TYPE": "U", "NORAD_CAT_ID": 66799, "ELEMENT_SET_NO": 999, "REV_AT_EPOCH": 200, "BSTAR": 0.003080361, "MEAN_MOTION_DOT": 0.00899454, "MEAN_MOTION_DDOT": 0.00032948159}, "tle": {"line1": "1 66799U 25278J   25347.80181046  .00899454  32948-3  30804-2 0  9995", "line2": "2 66799  42.9974 245.5274 0029254 280.3438  79.4139 15.88156331  2009"}}, "geometry": {"type": "Point", "coordinates": [112.28292673161394, -36.602235541938356]}}, {"type": "Feature", "properties": {"norad_id": 66800, "name": "STARLINK-35996", "group": "last-30-days", "lat": -27.19057330928933, "lon": 92.93428050295879, "alt_km": 321.3635910597004, "timestamp": "2025-12-14T18:52:54.243348+00:00", "meta": {"OBJECT_NAME": "STARLINK-35996", "OBJECT_ID": "2025-278K", "EPOCH": "2025-12-13T17:44:21.158592", "MEAN_MOTION": 15.84673795, "ECCENTRICITY": 0.00021147, "INCLINATION": 42.9967, "RA_OF_ASC_NODE": 245.9175, "ARG_OF_PERICENTER": 262.5698, "MEAN_ANOMALY": 97.4935, "EPHEMERIS_TYPE": 0, "CLASSIFICATION_TYPE": "U", "NORAD_CAT_ID": 66800, "ELEMENT_SET_NO": 999, "REV_AT_EPOCH": 199, "BSTAR": -0.0019313109, "MEAN_MOTION_DOT": -0.0043956, "MEAN_MOTION_DDOT": 0}, "tle": {"line1": "1 66800U 25278K   25347.73913378 -.00439560  00000+0 -19313-2 0  9993", "line2": "2 66800  42.9967 245.9175 0002114 262.5698  97.4935 15.84673795  1999"}}, "geometry": {"type": "Point", "coordinates": [92.93428050295879, -27.19057330928933]}}, {"type": "Feature", "properties": {"norad_id": 66801, "name": "STARLINK-36080", "group": "last-30-days", "lat": -33.476217351357164, "lon": 104.65778518707945, "alt_km": 321.08508713456285, "timestamp": "2025-12-14T18:52:54.243358+00:00", "meta": {"OBJECT_NAME": "STARLINK-36080", "OBJECT_ID": "2025-278L", "EPOCH": "2025-12-13T17:41:23.942688", "MEAN_MOTION": 15.84711999, "ECCENTRICITY": 0.00022474, "INCLINATION": 42.9968, "RA_OF_ASC_NODE": 245.9008, "ARG_OF_PERICENTER": 250.3433, "MEAN_ANOMALY": 109.7198, "EPHEMERIS_TYPE": 0, "CLASSIFICATION_TYPE": "U", "NORAD_CAT_ID": 66801, "ELEMENT_SET_NO": 999, "REV_AT_EPOCH": 199, "BSTAR": -0.0018490066, "MEAN_MOTION_DOT": -0.00422458, "MEAN_MOTION_DDOT": 0}, "tle": {"line1": "1 66801U 25278L   25347.73708267 -.00422458  00000+0 -18490-2 0  9996", "line2": "2 66801  42.9968 245.9008 0002247 250.3433 109.7198 15.84711999  1992"}}, "geometry": {"type": "Point", "coordinates": [104.65778518707945, -33.476217351357164]}}, {"type": "Feature", "properties": {"norad_id": 66802, "name": "STARLINK-35604", "group": "last-30-days", "lat": -28.95216624678887, "lon": 95.8909069304154, "alt_km": 321.0866275865483, "timestamp": "2025-12-14T18:52:54.243368+00:00", "meta": {"OBJECT_NAME": "STARLINK-35604", "OBJECT_ID": "2025-278M", "EPOCH": "2025-12-13T16:13:01.222176", "MEAN_MOTION": 15.84718976, "ECCENTRICITY": 0.00033108, "INCLINATION": 42.9961, "RA_OF_ASC_NODE": 246.3028, "ARG_OF_PERICENTER": 302.505, "MEAN_ANOMALY": 57.5503, "EPHEMERIS_TYPE": 0, "CLASSIFICATION_TYPE": "U", "NORAD_CAT_ID": 66802, "ELEMENT_SET_NO": 999, "REV_AT_EPOCH": 198, "BSTAR": -0.0010144377, "MEAN_MOTION_DOT": -0.00237067, "MEAN_MOTION_DDOT": 0}, "tle": {"line1": "1 66802U 25278M   25347.67570859 -.00237067  00000+0 -10144-2 0  9992", "line2": "2 66802  42.9961 246.3028 0003310 302.5050  57.5503 15.84718976  1981"}}, "geometry": {"type": "Point", "coordinates": [95.8909069304154, -28.95216624678887]}}, {"type": "Feature", "properties": {"norad_id": 66803, "name": "STARLINK-35565", "group": "last-30-days", "lat": -25.72364162468931, "lon": 90.6251495409356, "alt_km": 334.94322452909637, "timestamp": "2025-12-14T18:52:54.243380+00:00", "meta": {"OBJECT_NAME": "STARLINK-35565", "OBJECT_ID": "2025-278N", "EPOCH": "2025-12-12T19:02:38.302368", "MEAN_MOTION": 15.88166969, "ECCENTRICITY": 0.00047766, "INCLINATION": 42.9974, "RA_OF_ASC_NODE": 251.7329, "ARG_OF_PERICENTER": 311.8639, "MEAN_ANOMALY": 48.1827, "EPHEMERIS_TYPE": 0, "CLASSIFICATION_TYPE": "U", "NORAD_CAT_ID": 66803, "ELEMENT_SET_NO": 999, "REV_AT_EPOCH": 184, "BSTAR": -0.0087251966, "MEAN_MOTION_DOT": -0.02134789, "MEAN_MOTION_DDOT": 0}, "tle": {"line1": "1 66803U 25278N   25346.79349887 -.02134789  00000+0 -87252-2 0  9993", "line2": "2 66803  42.9974 251.7329 0004776 311.8639  48.1827 15.88166969  1846"}}, "geometry": {"type": "Point", "coordinates": [90.6251495409356, -25.72364162468931]}}, {"type": "Feature", "properties": {"norad_id": 66804, "name": "STARLINK-36038", "group": "last-30-days", "lat": -31.10570255421923, "lon": 99.81567932341838, "alt_km": 324.4222320151175, "timestamp": "2025-12-14T18:52:54.243390+00:00", "meta": {"OBJECT_NAME": "STARLINK-36038", "OBJECT_ID": "2025-278P", "EPOCH": "2025-12-13T20:43:32.790144", "MEAN_MOTION": 15.84318528, "ECCENTRICITY": 0.00029834, "INCLINATION": 42.9971, "RA_OF_ASC_NODE": 245.1292, "ARG_OF_PERICENTER": 285.5048, "MEAN_ANOMALY": 74.5495, "EPHEMERIS_TYPE": 0, "CLASSIFICATION_TYPE": "U", "NORAD_CAT_ID": 66804, "ELEMENT_SET_NO": 999, "REV_AT_EPOCH": 201, "BSTAR": -0.0037120429, "MEAN_MOTION_DOT": -0.00797418, "MEAN_MOTION_DDOT": 0}, "tle": {"line1": "1 66804U 25278P   25347.86357396 -.00797418  00000+0 -37120-2 0  9998", "line2": "2 66804  42.9971 245.1292 0002983 285.5048  74.5495 15.84318528  2019"}}, "geometry": {"type": "Point", "coordinates": [99.81567932341838, -31.10570255421923]}}]}